[{"OBJECT_NAME":"NINGXIA-1 9","OBJECT_ID":"2021-064D","EPOCH":"2026-03-09T22:22:33.329280","MEAN_MOTION":14.08541534,"ECCENTRICITY":0.00078366,"INCLINATION":45.0035,"RA_OF_ASC_NODE":315.3923,"ARG_OF_PERICENTER":140.8679,"MEAN_ANOMALY":219.2725,"EPHEMERIS_TYPE":0,"CLASSIFICATION_TYPE":"U","NORAD_CAT_ID":49021,"ELEMENT_SET_NO":999,"REV_AT_EPOCH":24023,"BSTAR":1.224568e-5,"MEAN_MOTION_DOT":-1.11e-6,"MEAN_MOTION_DDOT":0},{"OBJECT_NAME":"FENGYUN 1C DEB","OBJECT_ID":"1999-025FC","EPOCH":"2026-03-08T13:41:34.503936","MEAN_MOTION":13.78059961,"ECCENTRICITY":0.0200828,"INCLINATION":99.2084,"RA_OF_ASC_NODE":171.6981,"ARG_OF_PERICENTER":196.4714,"MEAN_ANOMALY":180.9025,"EPHEMERIS_TYPE":0,"CLASSIFICATION_TYPE":"U","NORAD_CAT_ID":29858,"ELEMENT_SET_NO":999,"REV_AT_EPOCH":95736,"BSTAR":0.0020906415,"MEAN_MOTION_DOT":2.398e-5,"MEAN_MOTION_DDOT":0}]
